norad_id,name,regime,epoch,line1,line2,inclination,eccentricity,mean_motion,raan,arg_pericenter,mean_anomaly
28082,CHINASAT 20,EGO,18291.50360801,1 28082U 03052A   18291.50360801 +.00000057 +00000-0 +00000-0 0 0001\,2 28082 004.4686 069.0803 0001507 112.1348 247.9834 00.9911070105465,4.4686,0.0001507,0.99110701,69.0803,112.1348,247.9834
28082,CHINASAT 20,EGO,18291.50361014,1 28082U 03052A   18291.50361014  .00000057  00000-0  00000+0 0  6315\,2 28082   4.4686  69.0810 0001498 109.3541 250.7641  0.99110740 54666,4.4686,0.0001498,0.9911074,69.081,109.3541,250.7641
28082,CHINASAT 20,EGO,18292.51256479,1 28082U 03052A   18292.51256479 +.00000047 +00000-0 +00000-0 0 0001\,2 28082 004.4705 069.0753 0001512 113.4256 246.6984 00.9911109805466,4.4705,0.0001512,0.99111098,69.0753,113.4256,246.6984
28082,CHINASAT 20,EGO,18293.52150269,1 28082U 03052A   18293.52150269  .00000035  00000-0  00000+0 0  6324\,2 28082   4.4725  69.0695 0001520 117.1864 242.9388  0.99111458 54682,4.4725,0.000152,0.99111458,69.0695,117.1864,242.9388
28082,CHINASAT 20,EGO,18293.52150323,1 28082U 03052A   18293.52150323 +.00000035 +00000-0 +00000-0 0 0001\,2 28082 004.4725 069.0698 0001516 115.9545 244.1709 00.9911146105467,4.4725,0.0001516,0.99111461,69.0698,115.9545,244.1709
28082,CHINASAT 20,EGO,18294.53041874,1 28082U 03052A   18294.53041874 +.00000019 +00000-0 +00000-0 0 0001\,2 28082 004.4745 069.0639 0001523 120.9257 239.1943 00.9911181905468,4.4745,0.0001523,0.99111819,69.0639,120.9257,239.1943
28082,CHINASAT 20,EGO,18294.53041968,1 28082U 03052A   18294.53041968 +.00000019 +00000-0 +00000-0 0 0001\,2 28082 004.4744 069.0642 0001521 119.7102 240.4100 00.9911182005468,4.4744,0.0001521,0.9911182,69.0642,119.7102,240.41
28082,CHINASAT 20,EGO,18295.53931053,1 28082U 03052A   18295.53931053 -.00000000  00000-0  00000+0 0  6339\,2 28082   4.4765  69.0584 0001521 124.6603 235.4470  0.99112172 54704,4.4765,0.0001521,0.99112172,69.0584,124.6603,235.447
28082,CHINASAT 20,EGO,18296.54817869,1 28082U 03052A   18296.54817869 -.00000022 +00000-0 +00000-0 0 0001\,2 28082 004.4786 069.0532 0001516 128.7678 231.3193 00.9911250405470,4.4786,0.0001516,0.99112504,69.0532,128.7678,231.3193
28082,CHINASAT 20,EGO,18296.54817992,1 28082U 03052A   18296.54817992 -.00000022 +00000-0 +00000-0 0 0001\,2 28082 004.4785 069.0535 0001519 127.6874 232.3999 00.9911250605470,4.4785,0.0001519,0.99112506,69.0535,127.6874,232.3999
28082,CHINASAT 20,EGO,18297.55702914,1 28082U 03052A   18297.55702914 -.00000047 +00000-0 +00000-0 0 0001\,2 28082 004.4806 069.0486 0001509 131.7537 228.3076 00.9911281905471,4.4806,0.0001509,0.99112819,69.0486,131.7537,228.3076
28082,CHINASAT 20,EGO,18298.56586622,1 28082U 03052A   18298.56586622 -.00000073  00000-0  00000+0 0  6445\,2 28082   4.4830  69.0445 0001480 138.8915 221.1398  0.99113004 54739,4.483,0.000148,0.99113004,69.0445,138.8915,221.1398
28082,CHINASAT 20,EGO,18298.56586715,1 28082U 03052A   18298.56586715 -.00000073 +00000-0 +00000-0 0 0001\,2 28082 004.4828 069.0440 0001490 136.3679 223.6641 00.9911309705472,4.4828,0.000149,0.99113097,69.044,136.3679,223.6641
28082,CHINASAT 20,EGO,18299.57470686,1 28082U 03052A   18299.57470686 -.00000102 +00000-0 +00000-0 0 0001\,2 28082 004.4850 069.0400 0001466 140.0016 220.0021 00.9911334705473,4.485,0.0001466,0.99113347,69.04,140.0016,220.0021
28082,CHINASAT 20,EGO,18300.58355829,1 28082U 03052A   18300.58355829 -.00000131  00000-0  00000+0 0  6450\,2 28082   4.4872  69.0362 0001434 143.4187 216.5618  0.99113562 54759,4.4872,0.0001434,0.99113562,69.0362,143.4187,216.5618
28082,CHINASAT 20,EGO,18300.58355880,1 28082U 03052A   18300.58355880 -.00000132 +00000-0 +00000-0 0 0001\,2 28082 004.4872 069.0364 0001430 143.4755 216.5049 00.9911356205474,4.4872,0.000143,0.99113562,69.0364,143.4755,216.5049
28082,CHINASAT 20,EGO,18300.58355885,1 28082U 03052A   18300.58355885 -.00000132 +00000-0 +00000-0 0 0001\,2 28082 004.4874 069.0373 0001407 145.4980 214.4817 00.9911347805474,4.4874,0.0001407,0.99113478,69.0373,145.498,214.4817
28082,CHINASAT 20,EGO,18301.59243205,1 28082U 03052A   18301.59243205 -.00000162 +00000-0 +00000-0 0 0001\,2 28082 004.4894 069.0327 0001401 145.7736 214.1918 00.9911375705475,4.4894,0.0001401,0.99113757,69.0327,145.7736,214.1918
28082,CHINASAT 20,EGO,18302.60133020,1 28082U 03052A   18302.60133020 -.00000191  00000-0  00000+0 0  6469\,2 28082   4.4916  69.0294 0001351 148.0844 211.8752  0.99113900 54776,4.4916,0.0001351,0.991139,69.0294,148.0844,211.8752
28082,CHINASAT 20,EGO,18302.60133196,1 28082U 03052A   18302.60133196 -.00000191 +00000-0 +00000-0 0 0001\,2 28082 004.4918 069.0310 0001298 149.8036 210.1554 00.9911383605476,4.4918,0.0001298,0.99113836,69.031,149.8036,210.1554
28082,CHINASAT 20,EGO,18303.61025026,1 28082U 03052A   18303.61025026 -.00000219 +00000-0 +00000-0 0 0001\,2 28082 004.4938 069.0264 0001293 149.9947 209.9671 00.9911400205477,4.4938,0.0001293,0.99114002,69.0264,149.9947,209.9671
28082,CHINASAT 20,EGO,18304.61918216,1 28082U 03052A   18304.61918216 -.00000244 +00000-0 +00000-0 0 0001\,2 28082 004.4961 069.0239 0001201 151.4708 208.4976 00.9911407305478,4.4961,0.0001201,0.99114073,69.0239,151.4708,208.4976
28082,CHINASAT 20,EGO,18304.61918256,1 28082U 03052A   18304.61918256 -.00000244  00000-0  00000+0 0  6474\,2 28082   4.4960  69.0237 0001222 151.2698 208.6987  0.99114070 54797,4.496,0.0001222,0.9911407,69.0237,151.2698,208.6987
28082,CHINASAT 20,EGO,18305.62811315,1 28082U 03052A   18305.62811315 -.00000266 +00000-0 +00000-0 0 0001\,2 28082 004.4982 069.0208 0001156 151.7234 208.2515 00.9911410605479,4.4982,0.0001156,0.99114106,69.0208,151.7234,208.2515
28082,CHINASAT 20,EGO,18306.63702830,1 28082U 03052A   18306.63702830 -.00000283  00000-0  00000+0 0  6504\,2 28082   4.5004  69.0177 0001086 151.4145 208.5617  0.99114113 54817,4.5004,0.0001086,0.99114113,69.0177,151.4145,208.5617
28082,CHINASAT 20,EGO,18307.64591981,1 28082U 03052A   18307.64591981 -.00000296 +00000-0 +00000-0 0 0001\,2 28082 004.5025 069.0143 0001025 150.2809 209.6883 00.9911408405481,4.5025,0.0001025,0.99114084,69.0143,150.2809,209.6883
28082,CHINASAT 20,EGO,18308.65478577,1 28082U 03052A   18308.65478577 -.00000303  00000-0  00000+0 0  6510\,2 28082   4.5046  69.0107 0000973 148.4650 211.4880  0.99114013 54833,4.5046,9.73e-05,0.99114013,69.0107,148.465,211.488
28082,CHINASAT 20,EGO,18309.66363150,1 28082U 03052A   18309.66363150 -.00000306 +00000-0 +00000-0 0 0001\,2 28082 004.5068 069.0070 0000912 145.4571 214.4722 00.9911395205483,4.5068,9.12e-05,0.99113952,69.007,145.4571,214.4722
28082,CHINASAT 20,EGO,18309.66363180,1 28082U 03052A   18309.66363180 -.00000306 +00000-0 +00000-0 0 0001\,2 28082 004.5067 069.0068 0000936 146.1578 213.7717 00.9911389105483,4.5067,9.36e-05,0.99113891,69.0068,146.1578,213.7717
28082,CHINASAT 20,EGO,18310.67246733,1 28082U 03052A   18310.67246733 -.00000303  00000-0  00000+0 0  6523\,2 28082   4.5088  69.0025 0000905 143.4114 216.4908  0.99113726 54851,4.5088,9.05e-05,0.99113726,69.0025,143.4114,216.4908
28082,CHINASAT 20,EGO,18310.67246877,1 28082U 03052A   18310.67246877 -.00000303 +00000-0 +00000-0 0 0001\,2 28082 004.5089 069.0028 0000891 141.5464 218.3558 00.9911385605484,4.5089,8.91e-05,0.99113856,69.0028,141.5464,218.3558
28082,CHINASAT 20,EGO,18311.68130605,1 28082U 03052A   18311.68130605 -.00000296 +00000-0 +00000-0 0 0001\,2 28082 004.5109 068.9981 0000892 140.8322 219.0430 00.9911349905485,4.5109,8.92e-05,0.99113499,68.9981,140.8322,219.043
28082,CHINASAT 20,EGO,18311.68130704,1 28082U 03052A   18311.68130704 -.00000296 +00000-0 +00000-0 0 0001\,2 28082 004.5109 068.9982 0000887 139.5290 220.3462 00.9911361205485,4.5109,8.87e-05,0.99113612,68.9982,139.529,220.3462
28082,CHINASAT 20,EGO,18312.69015846,1 28082U 03052A   18312.69015846 -.00000284  00000-0  00000+0 0  6557\,2 28082   4.5129  68.9933 0000894 138.7899 221.0626  0.99113208 54873,4.5129,8.94e-05,0.99113208,68.9933,138.7899,221.0626
28082,CHINASAT 20,EGO,18313.69903315,1 28082U 03052A   18313.69903315 -.00000269 +00000-0 +00000-0 0 0001\,2 28082 004.5149 068.9885 0000907 137.4697 222.3669 00.9911285705487,4.5149,9.07e-05,0.99112857,68.9885,137.4697,222.3669
28082,CHINASAT 20,EGO,18314.70793324,1 28082U 03052A   18314.70793324 -.00000249  00000-0  00000+0 0  6567\,2 28082   4.5169  68.9836 0000934 137.0676 222.7608  0.99112451 54898,4.5169,9.34e-05,0.99112451,68.9836,137.0676,222.7608
28082,CHINASAT 20,EGO,18315.71685784,1 28082U 03052A   18315.71685784 -.00000226 +00000-0 +00000-0 0 0001\,2 28082 004.5189 068.9786 0000959 137.6715 222.1560 00.9911199205489,4.5189,9.59e-05,0.99111992,68.9786,137.6715,222.156
28082,CHINASAT 20,EGO,18316.72580377,1 28082U 03052A   18316.72580377 -.00000199  00000-0  00000+0 0  6578\,2 28082   4.5208  68.9736 0000991 139.1734 220.6591  0.99111496 54911,4.5208,9.91e-05,0.99111496,68.9736,139.1734,220.6591
28082,CHINASAT 20,EGO,18316.72580454,1 28082U 03052A   18316.72580454 -.00000199 +00000-0 +00000-0 0 0001\,2 28082 004.5208 068.9735 0001010 140.1487 219.6839 00.9911148005490,4.5208,0.000101,0.9911148,68.9735,140.1487,219.6839
28082,CHINASAT 20,EGO,18317.73476522,1 28082U 03052A   18317.73476522 -.00000171 +00000-0 +00000-0 0 0001\,2 28082 004.5228 068.9686 0001027 141.1477 218.6934 00.9911097505491,4.5228,0.0001027,0.99110975,68.9686,141.1477,218.6934
28082,CHINASAT 20,EGO,18318.74373512,1 28082U 03052A   18318.74373512 -.00000140  00000-0  00000+0 0  6580\,2 28082   4.5247  68.9638 0001065 143.6756 216.1751  0.99110443 54933,4.5247,0.0001065,0.99110443,68.9638,143.6756,216.1751
28082,CHINASAT 20,EGO,18318.74373578,1 28082U 03052A   18318.74373578 -.00000140 +00000-0 +00000-0 0 0001\,2 28082 004.5247 068.9638 0001088 144.8631 214.9876 00.9911041605492,4.5247,0.0001088,0.99110416,68.9638,144.8631,214.9876
28082,CHINASAT 20,EGO,18319.75270563,1 28082U 03052A   18319.75270563 -.00000108 +00000-0 +00000-0 0 0001\,2 28082 004.5267 068.9590 0001106 146.8618 212.9967 00.9910991605493,4.5267,0.0001106,0.99109916,68.959,146.8618,212.9967
